QIANFAN-81              
1 63167U 25046J   26015.63195416  .00000156  00000+0  22254-3 0  9998
2 63167  88.9792 316.3690 0016171  28.2672 331.9353 13.51015953 52062
QIANFAN-82              
1 63168U 25046K   26015.59262388  .00000148  00000+0  21033-3 0  9992
2 63168  88.9792 316.4172 0014483  36.0724 324.1401 13.50988929 52045
QIANFAN-83              
1 63169U 25046L   26015.56695430  .00000171  00000+0  20567-3 0  9995
2 63169  88.9793 316.1298 0015364  20.9412 339.2372 13.61990986 52208
QIANFAN-84              
1 63170U 25046M   26015.62016631  .00000144  00000+0  20449-3 0  9993
2 63170  88.9792 316.5468 0017363  31.9134 328.3065 13.50998694 51979
QIANFAN-85              
1 63171U 25046N   26015.61717740  .00000135  00000+0  19052-3 0  9990
2 63171  88.9792 316.4188 0014820  34.8039 325.4079 13.50987745 52046
QIANFAN-86              
1 63172U 25046P   26015.62550273  .00000151  00000+0  21460-3 0  9992
2 63172  88.9794 316.2809 0012788  39.3636 320.8442 13.50989647 52126
QIANFAN-87              
1 63173U 25046Q   26015.59688778  .00000150  00000+0  21369-3 0  9998
2 63173  88.9790 316.3942 0013339  35.1031 325.0996 13.50987296 52059
QIANFAN-88              
1 63174U 25046R   26015.61306023  .00000144  00000+0  20407-3 0  9997
2 63174  88.9793 316.3479 0013889  41.8757 318.3454 13.50993482 52088
